{"type": "FeatureCollection", "features": [ {"type": "Feature", "properties": {"norad_id": 34468, "name": "COSMOS 2251 DEB", "group": "cosmos-2251-debris", "lat": -71.76826525049218, "lon": -7.384728311566879, "alt_km": 686.2031537559442, "timestamp": "2025-12-15T10:55:21.539144+00:00", "meta": {"OBJECT_NAME": "COSMOS 2251 DEB", "OBJECT_ID": "1993-036TM", "EPOCH": "2025-12-14T18:47:22.570368", "MEAN_MOTION": 14.4763182, "ECCENTRICITY": 0.00763481, "INCLINATION": 74.013, "RA_OF_ASC_NODE": 113.3761, "ARG_OF_PERICENTER": 257.8963, "MEAN_ANOMALY": 101.3634, "EPHEMERIS_TYPE": 0, "CLASSIFICATION_TYPE": "U", "NORAD_CAT_ID": 34468, "ELEMENT_SET_NO": 999, "REV_AT_EPOCH": 88491, "BSTAR": 0.00038732298, "MEAN_MOTION_DOT": 1.451e-05, "MEAN_MOTION_DDOT": 0}, "tle": {"line1": "1 34468U 93036TM  25348.78290012  .00001451  00000+0  38732-3 0  9993", "line2": "2 34468  74.0130 113.3761 0076348 257.8963 101.3634 14.47631820884916"}}, "geometry": {"type": "Point", "coordinates": [-7.384728311566879, -71.76826525049218]}}, {"type": "Feature", "properties": {"norad_id": 34472, "name": "COSMOS 2251 DEB", "group": "cosmos-2251-debris", "lat": -65.94753873788923, "lon": -46.5816078824855, "alt_km": 789.3125487286379, "timestamp": "2025-12-15T10:55:21.539154+00:00", "meta": {"OBJECT_NAME": "COSMOS 2251 DEB", "OBJECT_ID": "1993-036TR", "EPOCH": "2025-12-14T23:10:51.581856", "MEAN_MOTION": 13.70332395, "ECCENTRICITY": 0.03278239, "INCLINATION": 74.0838, "RA_OF_ASC_NODE": 94.483, "ARG_OF_PERICENTER": 224.9929, "MEAN_ANOMALY": 132.4205, "EPHEMERIS_TYPE": 0, "CLASSIFICATION_TYPE": "U", "NORAD_CAT_ID": 34472, "ELEMENT_SET_NO": 999, "REV_AT_EPOCH": 83757, "BSTAR": 0.00066746176, "MEAN_MOTION_DOT": 8.38e-06, "MEAN_MOTION_DDOT": 0}, "tle": {"line1": "1 34472U 93036TR  25348.96587479  .00000838  00000+0  66746-3 0  9998", "line2": "2 34472  74.0838  94.4830 0327823 224.9929 132.4205 13.70332395837575"}}, "geometry": {"type": "Point", "coordinates": [-46.5816078824855, -65.94753873788923]}}, {"type": "Feature", "properties": {"norad_id": 34474, "name": "COSMOS 2251 DEB", "group": "cosmos-2251-debris", "lat": 15.074266432153284, "lon": -34.15189840391445, "alt_km": 735.3979089435325, "timestamp": "2025-12-15T10:55:21.539164+00:00", "meta": {"OBJECT_NAME": "COSMOS 2251 DEB", "OBJECT_ID": "1993-036TT", "EPOCH": "2025-12-14T23:00:49.816224", "MEAN_MOTION": 14.0642975, "ECCENTRICITY": 0.01986367, "INCLINATION": 74.0774, "RA_OF_ASC_NODE": 322.3044, "ARG_OF_PERICENTER": 35.586, "MEAN_ANOMALY": 349.584, "EPHEMERIS_TYPE": 0, "CLASSIFICATION_TYPE": "U", "NORAD_CAT_ID": 34474, "ELEMENT_SET_NO": 999, "REV_AT_EPOCH": 85540, "BSTAR": 0.0015708801, "MEAN_MOTION_DOT": 3.081e-05, "MEAN_MOTION_DDOT": 0}, "tle": {"line1": "1 34474U 93036TT  25348.95890991  .00003081  00000+0  15709-2 0  9990", "line2": "2 34474  74.0774 322.3044 0198636  35.5860 349.5840 14.06429750855404"}}, "geometry": {"type": "Point", "coordinates": [-34.15189840391445, 15.074266432153284]}}, {"type": "Feature", "properties": {"norad_id": 34476, "name": "COSMOS 2251 DEB", "group": "cosmos-2251-debris", "lat": 64.1488417565952, "lon": -138.36899806592368, "alt_km": 1183.6108387538898, "timestamp": "2025-12-15T10:55:21.539175+00:00", "meta": {"OBJECT_NAME": "COSMOS 2251 DEB", "OBJECT_ID": "1993-036TV", "EPOCH": "2025-12-13T13:12:32.914944", "MEAN_MOTION": 13.82038877, "ECCENTRICITY": 0.03206751, "INCLINATION": 74.0054, "RA_OF_ASC_NODE": 81.1369, "ARG_OF_PERICENTER": 300.528, "MEAN_ANOMALY": 56.4549, "EPHEMERIS_TYPE": 0, "CLASSIFICATION_TYPE": "U", "NORAD_CAT_ID": 34476, "ELEMENT_SET_NO": 999, "REV_AT_EPOCH": 83649, "BSTAR": 0.0039703915, "MEAN_MOTION_DOT": 6.299e-05, "MEAN_MOTION_DDOT": 0}, "tle": {"line1": "1 34476U 93036TV  25347.55038096  .00006299  00000+0  39704-2 0  9992", "line2": "2 34476  74.0054  81.1369 0320675 300.5280  56.4549 13.82038877836495"}}, "geometry": {"type": "Point", "coordinates": [-138.36899806592368, 64.1488417565952]}}, {"type": "Feature", "properties": {"norad_id": 34477, "name": "COSMOS 2251 DEB", "group": "cosmos-2251-debris", "lat": 15.308805038809828, "lon": 68.83822962332225, "alt_km": 734.7263514511178, "timestamp": "2025-12-15T10:55:21.539185+00:00", "meta": {"OBJECT_NAME": "COSMOS 2251 DEB", "OBJECT_ID": "1993-036TW", "EPOCH": "2025-12-14T22:12:32.279904", "MEAN_MOTION": 14.56881744, "ECCENTRICITY": 0.00768899, "INCLINATION": 73.9794, "RA_OF_ASC_NODE": 65.3362, "ARG_OF_PERICENTER": 252.083, "MEAN_ANOMALY": 226.0285, "EPHEMERIS_TYPE": 0, "CLASSIFICATION_TYPE": "U", "NORAD_CAT_ID": 34477, "ELEMENT_SET_NO": 999, "REV_AT_EPOCH": 88657, "BSTAR": 0.00057513133, "MEAN_MOTION_DOT": 2.654e-05, "MEAN_MOTION_DDOT": 0}, "tle": {"line1": "1 34477U 93036TW  25348.92537361  .00002654  00000+0  57513-3 0  9994", "line2": "2 34477  73.9794  65.3362 0076889 252.0830 226.0285 14.56881744886576"}}, "geometry": {"type": "Point", "coordinates": [68.83822962332225, 15.308805038809828]}}, {"type": "Feature", "properties": {"norad_id": 34478, "name": "COSMOS 2251 DEB", "group": "cosmos-2251-debris", "lat": 32.45032243643249, "lon": 11.781812992901635, "alt_km": 563.1538162332554, "timestamp": "2025-12-15T10:55:21.539195+00:00", "meta": {"OBJECT_NAME": "COSMOS 2251 DEB", "OBJECT_ID": "1993-036TX", "EPOCH": "2025-12-14T20:42:58.099680", "MEAN_MOTION": 15.08200538, "ECCENTRICITY": 0.00347126, "INCLINATION": 74.0409, "RA_OF_ASC_NODE": 2.5153, "ARG_OF_PERICENTER": 223.3038, "MEAN_ANOMALY": 198.0648, "EPHEMERIS_TYPE": 0, "CLASSIFICATION_TYPE": "U", "NORAD_CAT_ID": 34478, "ELEMENT_SET_NO": 999, "REV_AT_EPOCH": 89005, "BSTAR": 0.0017592546, "MEAN_MOTION_DOT": 0.00027666, "MEAN_MOTION_DDOT": 0}, "tle": {"line1": "1 34478U 93036TX  25348.86317245  .00027666  00000+0  17593-2 0  9998", "line2": "2 34478  74.0409   2.5153 0034712 223.3038 198.0648 15.08200538890056"}}, "geometry": {"type": "Point", "coordinates": [11.781812992901635, 32.45032243643249]}}, {"type": "Feature", "properties": {"norad_id": 34481, "name": "COSMOS 2251 DEB", "group": "cosmos-2251-debris", "lat": -27.173197253080172, "lon": 40.001882377428444, "alt_km": 805.0830797608469, "timestamp": "2025-12-15T10:55:21.539205+00:00", "meta": {"OBJECT_NAME": "COSMOS 2251 DEB", "OBJECT_ID": "1993-036UA", "EPOCH": "2025-12-14T15:32:32.309952", "MEAN_MOTION": 14.32559559, "ECCENTRICITY": 0.00706668, "INCLINATION": 73.9808, "RA_OF_ASC_NODE": 49.9614, "ARG_OF_PERICENTER": 223.9598, "MEAN_ANOMALY": 264.146, "EPHEMERIS_TYPE": 0, "CLASSIFICATION_TYPE": "U", "NORAD_CAT_ID": 34481, "ELEMENT_SET_NO": 999, "REV_AT_EPOCH": 87476, "BSTAR": 0.00069878059, "MEAN_MOTION_DOT": 1.923e-05, "MEAN_MOTION_DDOT": 0}, "tle": {"line1": "1 34481U 93036UA  25348.64759618  .00001923  00000+0  69878-3 0  9994", "line2": "2 34481  73.9808  49.9614 0070666 223.9598 264.1460 14.32559559874766"}}, "geometry": {"type": "Point", "coordinates": [40.001882377428444, -27.173197253080172]}}, {"type": "Feature", "properties": {"norad_id": 34482, "name": "COSMOS 2251 DEB", "group": "cosmos-2251-debris", "lat": 38.95414790714191, "lon": 24.955297640026966, "alt_km": 683.8394175047151, "timestamp": "2025-12-15T10:55:21.539215+00:00", "meta": {"OBJECT_NAME": "COSMOS 2251 DEB", "OBJECT_ID": "1993-036UB", "EPOCH": "2025-12-14T16:34:16.548384", "MEAN_MOTION": 14.69235358, "ECCENTRICITY": 0.00448435, "INCLINATION": 74.0374, "RA_OF_ASC_NODE": 219.8151, "ARG_OF_PERICENTER": 279.4317, "MEAN_ANOMALY": 137.2705, "EPHEMERIS_TYPE": 0, "CLASSIFICATION_TYPE": "U", "NORAD_CAT_ID": 34482, "ELEMENT_SET_NO": 999, "REV_AT_EPOCH": 88216, "BSTAR": 0.0013436488, "MEAN_MOTION_DOT": 8.019e-05, "MEAN_MOTION_DDOT": 0}, "tle": {"line1": "1 34482U 93036UB  25348.69046931  .00008019  00000+0  13436-2 0  9998", "line2": "2 34482  74.0374 219.8151 0044843 279.4317 137.2705 14.69235358882167"}}, "geometry": {"type": "Point", "coordinates": [24.955297640026966, 38.95414790714191]}}, {"type": "Feature", "properties": {"norad_id": 34544, "name": "COSMOS 2251 DEB", "group": "cosmos-2251-debris", "lat": -9.733335770227422, "lon": -163.20322617970052, "alt_km": 1203.8331257078416, "timestamp": "2025-12-15T10:55:21.539226+00:00", "meta": {"OBJECT_NAME": "COSMOS 2251 DEB", "OBJECT_ID": "1993-036UE", "EPOCH": "2025-12-13T23:53:30.258240", "MEAN_MOTION": 13.5466391, "ECCENTRICITY": 0.03840916, "INCLINATION": 73.914, "RA_OF_ASC_NODE": 201.9961, "ARG_OF_PERICENTER": 230.2101, "MEAN_ANOMALY": 200.3541, "EPHEMERIS_TYPE": 0, "CLASSIFICATION_TYPE": "U", "NORAD_CAT_ID": 34544, "ELEMENT_SET_NO": 999, "REV_AT_EPOCH": 82899, "BSTAR": 0.0003836434, "MEAN_MOTION_DOT": 3.97e-06, "MEAN_MOTION_DDOT": 0}, "tle": {"line1": "1 34544U 93036UE  25347.99548910  .00000397  00000+0  38364-3 0  9992", "line2": "2 34544  73.9140 201.9961 0384091 230.2101 200.3541 13.54663910828997"}}, "geometry": {"type": "Point", "coordinates": [-163.20322617970052, -9.733335770227422]}}, {"type": "Feature", "properties": {"norad_id": 34546, "name": "COSMOS 2251 DEB", "group": "cosmos-2251-debris", "lat": 70.08567020119834, "lon": 11.901125330847606, "alt_km": 746.2048582445486, "timestamp": "2025-12-15T10:55:21.539236+00:00", "meta": {"OBJECT_NAME": "COSMOS 2251 DEB", "OBJECT_ID": "1993-036UG", "EPOCH": "2025-12-14T21:44:18.069216", "MEAN_MOTION": 14.45423309, "ECCENTRICITY": 0.00219628, "INCLINATION": 74.0313, "RA_OF_ASC_NODE": 245.147, "ARG_OF_PERICENTER": 318.6918, "MEAN_ANOMALY": 165.8078, "EPHEMERIS_TYPE": 0, "CLASSIFICATION_TYPE": "U", "NORAD_CAT_ID": 34546, "ELEMENT_SET_NO": 999, "REV_AT_EPOCH": 88057, "BSTAR": 0.00048192984, "MEAN_MOTION_DOT": 1.675e-05, "MEAN_MOTION_DDOT": 0}, "tle": {"line1": "1 34546U 93036UG  25348.90576469  .00001675  00000+0  48193-3 0  9997", "line2": "2 34546  74.0313 245.1470 0021962 318.6918 165.8078 14.45423309880579"}}, "geometry": {"type": "Point", "coordinates": [11.901125330847606, 70.08567020119834]}}]}